{"type": "FeatureCollection", "features": [ {"type": "Feature", "properties": {"norad_id": 44804, "name": "CARTOSAT-3", "group": "resource", "lat": 22.794596058297763, "lon": 50.28174484846809, "alt_km": 500.26829262824504, "timestamp": "2025-12-19T22:41:52.036876+00:00", "meta": {"OBJECT_NAME": "CARTOSAT-3", "OBJECT_ID": "2019-081A", "EPOCH": "2025-12-19T17:51:16.979328", "MEAN_MOTION": 15.19209604, "ECCENTRICITY": 0.0014009, "INCLINATION": 97.4581, "RA_OF_ASC_NODE": 53.2384, "ARG_OF_PERICENTER": 61.2668, "MEAN_ANOMALY": 298.9972, "EPHEMERIS_TYPE": 0, "CLASSIFICATION_TYPE": "U", "NORAD_CAT_ID": 44804, "ELEMENT_SET_NO": 999, "REV_AT_EPOCH": 33622, "BSTAR": 0.00019754, "MEAN_MOTION_DOT": 4.1e-05, "MEAN_MOTION_DDOT": 0}, "tle": {"line1": "1 44804U 19081A   25353.74394652  .00004100  00000+0  19754-3 0  9990", "line2": "2 44804  97.4581  53.2384 0014009  61.2668 298.9972 15.19209604336223"}}, "geometry": {"type": "Point", "coordinates": [50.28174484846809, 22.794596058297763]}}, {"type": "Feature", "properties": {"norad_id": 44819, "name": "GAOFEN-12 01", "group": "resource", "lat": -29.031498379647548, "lon": 175.66728819687035, "alt_km": 631.9226757727965, "timestamp": "2025-12-19T22:41:52.036886+00:00", "meta": {"OBJECT_NAME": "GAOFEN-12 01", "OBJECT_ID": "2019-082A", "EPOCH": "2025-12-19T18:30:43.117632", "MEAN_MOTION": 14.80665056, "ECCENTRICITY": 0.000178, "INCLINATION": 97.8124, "RA_OF_ASC_NODE": 359.8678, "ARG_OF_PERICENTER": 197.8026, "MEAN_ANOMALY": 162.3124, "EPHEMERIS_TYPE": 0, "CLASSIFICATION_TYPE": "U", "NORAD_CAT_ID": 44819, "ELEMENT_SET_NO": 999, "REV_AT_EPOCH": 32754, "BSTAR": 5.1731e-05, "MEAN_MOTION_DOT": 3.47e-06, "MEAN_MOTION_DDOT": 0}, "tle": {"line1": "1 44819U 19082A   25353.77133238  .00000347  00000+0  51731-4 0  9992", "line2": "2 44819  97.8124 359.8678 0001780 197.8026 162.3124 14.80665056327545"}}, "geometry": {"type": "Point", "coordinates": [175.66728819687035, -29.031498379647548]}}, {"type": "Feature", "properties": {"norad_id": 44873, "name": "CSG-1", "group": "resource", "lat": -1.2721041019526462, "lon": 175.33751223548094, "alt_km": 625.6790056798345, "timestamp": "2025-12-19T22:41:52.036896+00:00", "meta": {"OBJECT_NAME": "CSG-1", "OBJECT_ID": "2019-092A", "EPOCH": "2025-12-19T19:27:46.974240", "MEAN_MOTION": 14.82149248, "ECCENTRICITY": 0.0001489, "INCLINATION": 97.8803, "RA_OF_ASC_NODE": 175.0286, "ARG_OF_PERICENTER": 86.0759, "MEAN_ANOMALY": 274.0624, "EPHEMERIS_TYPE": 0, "CLASSIFICATION_TYPE": "U", "NORAD_CAT_ID": 44873, "ELEMENT_SET_NO": 999, "REV_AT_EPOCH": 32490, "BSTAR": 5.7924e-05, "MEAN_MOTION_DOT": 4.09e-06, "MEAN_MOTION_DDOT": 0}, "tle": {"line1": "1 44873U 19092A   25353.81096035  .00000409  00000+0  57924-4 0  9990", "line2": "2 44873  97.8803 175.0286 0001489  86.0759 274.0624 14.82149248324905"}}, "geometry": {"type": "Point", "coordinates": [175.33751223548094, -1.2721041019526462]}}, {"type": "Feature", "properties": {"norad_id": 46277, "name": "NEMO-HD", "group": "resource", "lat": -45.705564798879585, "lon": -134.51373819609282, "alt_km": 452.527885026474, "timestamp": "2025-12-19T22:41:52.036906+00:00", "meta": {"OBJECT_NAME": "NEMO-HD", "OBJECT_ID": "2020-061F", "EPOCH": "2025-12-19T18:36:04.858272", "MEAN_MOTION": 15.40465008, "ECCENTRICITY": 0.0001428, "INCLINATION": 97.2205, "RA_OF_ASC_NODE": 52.7841, "ARG_OF_PERICENTER": 52.1915, "MEAN_ANOMALY": 307.9461, "EPHEMERIS_TYPE": 0, "CLASSIFICATION_TYPE": "U", "NORAD_CAT_ID": 46277, "ELEMENT_SET_NO": 999, "REV_AT_EPOCH": 29432, "BSTAR": 0.00018939, "MEAN_MOTION_DOT": 7.59e-05, "MEAN_MOTION_DDOT": 0}, "tle": {"line1": "1 46277U 20061F   25353.77505623  .00007590  00000+0  18939-3 0  9991", "line2": "2 46277  97.2205  52.7841 0001428  52.1915 307.9461 15.40465008294321"}}, "geometry": {"type": "Point", "coordinates": [-134.51373819609282, -45.705564798879585]}}, {"type": "Feature", "properties": {"norad_id": 46984, "name": "SENTINEL-6A", "group": "resource", "lat": -22.980702615505965, "lon": -21.78990174221062, "alt_km": 1339.51317005098, "timestamp": "2025-12-19T22:41:52.036916+00:00", "meta": {"OBJECT_NAME": "SENTINEL-6A", "OBJECT_ID": "2020-086A", "EPOCH": "2025-12-19T17:52:54.206112", "MEAN_MOTION": 12.80930818, "ECCENTRICITY": 0.0007715, "INCLINATION": 66.0393, "RA_OF_ASC_NODE": 147.7576, "ARG_OF_PERICENTER": 269.2966, "MEAN_ANOMALY": 90.7165, "EPHEMERIS_TYPE": 0, "CLASSIFICATION_TYPE": "U", "NORAD_CAT_ID": 46984, "ELEMENT_SET_NO": 999, "REV_AT_EPOCH": 23734, "BSTAR": -3.1411e-05, "MEAN_MOTION_DOT": -6.8e-07, "MEAN_MOTION_DDOT": 0}, "tle": {"line1": "1 46984U 20086A   25353.74507183 -.00000068  00000+0 -31411-4 0  9999", "line2": "2 46984  66.0393 147.7576 0007715 269.2966  90.7165 12.80930818237344"}}, "geometry": {"type": "Point", "coordinates": [-21.78990174221062, -22.980702615505965]}}, {"type": "Feature", "properties": {"norad_id": 48079, "name": "GAOFEN-12 02", "group": "resource", "lat": -40.71761510635429, "lon": 160.97831037056804, "alt_km": 635.5028313127468, "timestamp": "2025-12-19T22:41:52.036926+00:00", "meta": {"OBJECT_NAME": "GAOFEN-12 02", "OBJECT_ID": "2021-026A", "EPOCH": "2025-12-19T18:27:31.737312", "MEAN_MOTION": 14.80682973, "ECCENTRICITY": 0.0003596, "INCLINATION": 97.9853, "RA_OF_ASC_NODE": 347.7417, "ARG_OF_PERICENTER": 87.1085, "MEAN_ANOMALY": 273.0538, "EPHEMERIS_TYPE": 0, "CLASSIFICATION_TYPE": "U", "NORAD_CAT_ID": 48079, "ELEMENT_SET_NO": 999, "REV_AT_EPOCH": 25521, "BSTAR": 5.2586e-05, "MEAN_MOTION_DOT": 3.51e-06, "MEAN_MOTION_DDOT": 0}, "tle": {"line1": "1 48079U 21026A   25353.76911733  .00000351  00000+0  52586-4 0  9992", "line2": "2 48079  97.9853 347.7417 0003596  87.1085 273.0538 14.80682973255217"}}, "geometry": {"type": "Point", "coordinates": [160.97831037056804, -40.71761510635429]}}, {"type": "Feature", "properties": {"norad_id": 48268, "name": "PLEIADES NEO 3", "group": "resource", "lat": -45.81654660025098, "lon": 74.49247143263773, "alt_km": 631.4624235799829, "timestamp": "2025-12-19T22:41:52.036935+00:00", "meta": {"OBJECT_NAME": "PLEIADES NEO 3", "OBJECT_ID": "2021-034A", "EPOCH": "2025-12-19T18:02:39.984288", "MEAN_MOTION": 14.81672914, "ECCENTRICITY": 0.0001328, "INCLINATION": 97.8951, "RA_OF_ASC_NODE": 66.0926, "ARG_OF_PERICENTER": 87.7103, "MEAN_ANOMALY": 272.4262, "EPHEMERIS_TYPE": 0, "CLASSIFICATION_TYPE": "U", "NORAD_CAT_ID": 48268, "ELEMENT_SET_NO": 999, "REV_AT_EPOCH": 25108, "BSTAR": 0.00011078, "MEAN_MOTION_DOT": 8.2e-06, "MEAN_MOTION_DDOT": 0}, "tle": {"line1": "1 48268U 21034A   25353.75185167  .00000820  00000+0  11078-3 0  9995", "line2": "2 48268  97.8951  66.0926 0001328  87.7103 272.4262 14.81672914251082"}}, "geometry": {"type": "Point", "coordinates": [74.49247143263773, -45.81654660025098]}}, {"type": "Feature", "properties": {"norad_id": 49070, "name": "PLEIADES NEO 4", "group": "resource", "lat": 45.56220797295281, "lon": -105.58440644765174, "alt_km": 619.4476501802674, "timestamp": "2025-12-19T22:41:52.036945+00:00", "meta": {"OBJECT_NAME": "PLEIADES NEO 4", "OBJECT_ID": "2021-073E", "EPOCH": "2025-12-19T17:14:01.451904", "MEAN_MOTION": 14.81673921, "ECCENTRICITY": 0.0001322, "INCLINATION": 97.8951, "RA_OF_ASC_NODE": 66.0555, "ARG_OF_PERICENTER": 91.7224, "MEAN_ANOMALY": 268.414, "EPHEMERIS_TYPE": 0, "CLASSIFICATION_TYPE": "U", "NORAD_CAT_ID": 49070, "ELEMENT_SET_NO": 999, "REV_AT_EPOCH": 23479, "BSTAR": 9.4219e-06, "MEAN_MOTION_DOT": 2.2e-07, "MEAN_MOTION_DDOT": 0}, "tle": {"line1": "1 49070U 21073E   25353.71807236  .00000022  00000+0  94219-5 0  9998", "line2": "2 49070  97.8951  66.0555 0001322  91.7224 268.4140 14.81673921234793"}}, "geometry": {"type": "Point", "coordinates": [-105.58440644765174, 45.56220797295281]}}, {"type": "Feature", "properties": {"norad_id": 49260, "name": "LANDSAT 9", "group": "resource", "lat": -53.41129724547191, "lon": -129.2606044582589, "alt_km": 710.1645214421405, "timestamp": "2025-12-19T22:41:52.036956+00:00", "meta": {"OBJECT_NAME": "LANDSAT 9", "OBJECT_ID": "2021-088A", "EPOCH": "2025-12-19T15:02:03.183936", "MEAN_MOTION": 14.57104632, "ECCENTRICITY": 0.0001115, "INCLINATION": 98.2087, "RA_OF_ASC_NODE": 61.6374, "ARG_OF_PERICENTER": 91.1885, "MEAN_ANOMALY": 268.9441, "EPHEMERIS_TYPE": 0, "CLASSIFICATION_TYPE": "U", "NORAD_CAT_ID": 49260, "ELEMENT_SET_NO": 999, "REV_AT_EPOCH": 22485, "BSTAR": 8.05e-05, "MEAN_MOTION_DOT": 3.17e-06, "MEAN_MOTION_DDOT": 0}, "tle": {"line1": "1 49260U 21088A   25353.62642574  .00000317  00000+0  80500-4 0  9991", "line2": "2 49260  98.2087  61.6374 0001115  91.1885 268.9441 14.57104632224852"}}, "geometry": {"type": "Point", "coordinates": [-129.2606044582589, -53.41129724547191]}}, {"type": "Feature", "properties": {"norad_id": 51444, "name": "CSG-2", "group": "resource", "lat": 0.9905763728911209, "lon": -4.702981688396962, "alt_km": 625.5217080754428, "timestamp": "2025-12-19T22:41:52.036966+00:00", "meta": {"OBJECT_NAME": "CSG-2", "OBJECT_ID": "2022-008A", "EPOCH": "2025-12-19T18:39:10.365120", "MEAN_MOTION": 14.82149163, "ECCENTRICITY": 0.0001439, "INCLINATION": 97.8798, "RA_OF_ASC_NODE": 174.9939, "ARG_OF_PERICENTER": 84.9522, "MEAN_ANOMALY": 275.1855, "EPHEMERIS_TYPE": 0, "CLASSIFICATION_TYPE": "U", "NORAD_CAT_ID": 51444, "ELEMENT_SET_NO": 999, "REV_AT_EPOCH": 21001, "BSTAR": -2.9851e-06, "MEAN_MOTION_DOT": -7.6e-07, "MEAN_MOTION_DDOT": 0}, "tle": {"line1": "1 51444U 22008A   25353.77720330 -.00000076  00000+0 -29851-5 0  9991", "line2": "2 51444  97.8798 174.9939 0001439  84.9522 275.1855 14.82149163210013"}}, "geometry": {"type": "Point", "coordinates": [-4.702981688396962, 0.9905763728911209]}}]}